{
    "links": {
        "self": "http://www.neowsapp.com/rest/v1/neo/3837528?api_key=iIulBulltgU6a56xZRHN4H3l9WmuAYTsLGpBGhQ2"
    },
    "id": "3837528",
    "neo_reference_id": "3837528",
    "name": "(2015 FD415)",
    "designation": "2015 FD415",
    "nasa_jpl_url": "http://ssd.jpl.nasa.gov/sbdb.cgi?sstr=3837528",
    "absolute_magnitude_h": 20.7,
    "estimated_diameter": {
        "kilometers": {
            "estimated_diameter_min": 0.1925550782,
            "estimated_diameter_max": 0.4305662442
        },
        "meters": {
            "estimated_diameter_min": 192.5550781879,
            "estimated_diameter_max": 430.566244241
        },
        "miles": {
            "estimated_diameter_min": 0.1196481415,
            "estimated_diameter_max": 0.2675413778
        },
        "feet": {
            "estimated_diameter_min": 631.7424027221,
            "estimated_diameter_max": 1412.6189567557
        }
    },
    "is_potentially_hazardous_asteroid": false,
    "close_approach_data": [
        {
            "close_approach_date": "2001-01-26",
            "close_approach_date_full": "2001-Jan-26 20:13",
            "epoch_date_close_approach": 980539980000,
            "relative_velocity": {
                "kilometers_per_second": "13.0234335785",
                "kilometers_per_hour": "46884.3608827505",
                "miles_per_hour": "29132.1185718402"
            },
            "miss_distance": {
                "astronomical": "0.0602812291",
                "lunar": "23.4493981199",
                "kilometers": "9017943.474342017",
                "miles": "5603490.2376611546"
            },
            "orbiting_body": "Mars"
        },
        {
            "close_approach_date": "2022-02-03",
            "close_approach_date_full": "2022-Feb-03 20:26",
            "epoch_date_close_approach": 1643919960000,
            "relative_velocity": {
                "kilometers_per_second": "4.8505214389",
                "kilometers_per_hour": "17461.8771799025",
                "miles_per_hour": "10850.13140659"
            },
            "miss_distance": {
                "astronomical": "0.4228509646",
                "lunar": "164.4890252294",
                "kilometers": "63257603.631605402",
                "miles": "39306452.2322704676"
            },
            "orbiting_body": "Earth"
        }
    ],
    "orbital_data": {
        "orbit_id": "1",
        "orbit_determination_date": "2018-12-30 06:54:36",
        "first_observation_date": "2015-03-25",
        "last_observation_date": "2015-04-26",
        "data_arc_in_days": 32,
        "observations_used": 17,
        "orbit_uncertainty": "6",
        "minimum_orbit_intersection": ".425226",
        "jupiter_tisserand_invariant": "3.369",
        "epoch_osculation": "2459000.5",
        "eccentricity": ".4614896798957832",
        "semi_major_axis": "2.326103397768902",
        "inclination": "17.36134382289106",
        "ascending_node_longitude": "22.73961173393928",
        "orbital_period": "1295.811859534754",
        "perihelion_distance": "1.252630685328038",
        "perihelion_argument": "93.40761299396897",
        "aphelion_distance": "3.399576110209766",
        "perihelion_time": "2459594.573528772066",
        "mean_anomaly": "194.9556158293457",
        "mean_motion": ".2778181086637483",
        "equinox": "J2000",
        "orbit_class": {
            "orbit_class_type": "AMO",
            "orbit_class_description": "Near-Earth asteroid orbits similar to that of 1221 Amor",
            "orbit_class_range": "1.017 AU < q (perihelion) < 1.3 AU"
        }
    },
    "is_sentry_object": false
}